NEXTSAT-1               
1 43811U 18099BF  26068.68342010  .00004546  00000+0  29857-3 0  9992
2 43811  97.4203 114.8574 0011320 323.9610  36.0854 15.08057555396886
STARLINK-3574           
1 51874U 22022Y   26068.21328556 -.00001672  00000+0 -86972-4 0  9990
2 51874  53.2193  11.2598 0001553 100.2689 259.8478 15.08845310223034
